Addr1,AddressLabel,City,CompanyName,Phone,PostalCode,State
8 Northway Lane North,Albany Branch,Latham,National Trench Safety,518-785-5544,14086,NY
2440 Phoenix Ave. NE,Albuquerque  Branch,Albuquerque ,National Trench Safety,505-881-4830,87107,NM
4241 Transport City Ct,Atlanta Branch,Conley,National Trench Safety,866-260-8609,30288,GA
5106 Commercial Park Drive,Austin Branch,Austin ,National Trench Safety,512-929-8000,78724,TX
6608 Fort Smallwood Rd,Baltimore Branch,Baltimore,National Trench Safety,301 937 1350,21226,MD
3136 South Ruby Ave.,Baton Rouge Branch,Gonzales,National Trench Safety,225-644-2763,70737,LA
11343 Maryland Ave.,Beltsville Branch,Beltsville ,National Trench Safety,301-937-1350,20705,MD
2401 N 1st Street,Berthoud Branch,Berthoud,National Trench Safety,970-532-4066,80513,CO
2650 Crestwood Blvd.,Birmingham Branch,Birmingham,National Trench Safety,205-956-1668,35210,AL
2809 S Liberty Street,Boise Branch,Boise,National Trench Safety,208-985-6039,83709,ID
49 Silva Lane,Boston Branch,Dracut,National Trench Safety,978-475-0420,01826,MA
10 Lancaster Parkway,Buffalo Branch,Lancaster,National Trench Safety,518-785-5544,14086,NY
2039 Willow Springs Lane,Burlington Branch,Burlington ,National Trench Safety,336-229-1616,27215,NC
7285 Peppermill Parkway,Charleston Branch,North Charleston,National Trench Safety,843-767-8878,29418,SC
3521 Asbury Ave,Charlotte Branch,Charlotte ,National Trench Safety,704-344-8081,28206,NC
160 N. Garden Ave,Chicago Branch,Roselle,National Trench Safety,217-282-4792,60172,IL
525 Golden Oak Parkway,Cleveland Branch,Oakwood Villiage,National Trench Safety,440-786-9314,44146,OH
6820 Dalby Drive,Colorado Springs Branch,Colorado Springs,National Trench Safety,719-633-4556,80923,CO
2733 Carrier Ave.,Commerce Branch,Commerce,National Trench Safety,866-537-1260,90040,CA
260 N Sam Houston Pkwy E; Ste. 200,Corporate Office,Houston,NTS - Corporate Office,832-200-0988,77060,TX
605 Cantwell Lane,Corpus Christi Branch,Corpus Christi ,National Trench Safety,361-929-9537,78408,TX
1602 E 6th Street,Dallas Branch,Irving,National Trench Safety,214-441-0454,75060,TX
4795 Forest Street,Denver Branch,Denver,National Trench Safety,303-341-4498,80216,CO
1922 Delaware Ave.,Des Moines Branch,Des Moines,National Trench Safety,515-513-6411,50317,IA
10763 Poplar Ave.,Fontana Branch,Fontana,National Trench Safety,877-246-4085,92337,CA
3602 N Sylvania Ave.,Fort Worth Branch,Fort Worth ,National Trench Safety,817-502-1444,76111,TX
43801 Osgood Rd.,Fremont Branch,Fremont,National Trench Safety,877-246-4086,94539,CA
2790 S Railroad Ave,Fresno Branch,Fresno ,National Trench Safety,844-803-8408,93725,CA
2257 Hardwood Circle,Gainesville Branch,Gainesville ,National Trench Safety,770-932-2165,30507,GA
3174 Perkins Drive,Grand Junction Branch,Grand Junction,National Trench Safety,970-523-8520,81504,CO
5545 N Susquehanna Trail,Harrisburg Branch,Manchester,National Trench Safety,717-307-2395,17345,PA
17502 Carlsway Road,Houston North Branch,Houston,National Trench Safety,866-247-9449,77073,TX
9002 Wayfarer Lane,Houston South Branch,Houston,National Trench Safety,713-991-9800,77075,TX
2515 Edgewood Ave North,Jacksonville Branch,Jacksonville,National Trench Safety,904-786-4100,32254,FL
1413 Osage Ave.,Kansas City Branch,Kansas City,National Trench Safety,913-386-9240,66105,KS
3237 Petro Drive,Lake Charles Branch,Sulphur,National Trench Safety,337-882-4905,70665,LA
2606 E La Madre Way N,Las Vegas  Branch,Las Vegas,NTS - Traffic Solutions,702-791-2839,89081,NV
2606 E La Madre Way N,Las Vegas Branch,Las Vegas,National Trench Safety,877-809-6493,89081,NV
11111 Industrial Rd,Manassas Branch,Manassas ,National Trench Safety,703-330-5104,20109,VA
9244 S. Clinton Trail,Megan MacDonald,Eaton Rapids,Megan MacDonald ,999-999-9999,48827,MI
4201 Kean Road,Miami Branch,Davie,National Trench Safety,954-332-7700,33314,FL
5965 Rangeline Road,Mobile Branch,Theodore,National Trench Safety,251-443-7080,36582,AL
145 West Trinity Lane,Nashville Branch,Nashville ,National Trench Safety,615-339-5284,37207,TN
4560 36th Street,National Trench Safety,Orlando,,,32811,FL
1908 S Yale Street,Orange County Branch TR,Santa Ana,National Trench Safety,800-772-8004,92704,CA
514 S Lyon Street,Orange County Branch TS,Santa Ana,National Trench Safety,833-918-2705,92701,CA
9858 Sidney Hays Road,Orlando Branch,Orlando,National Trench Safety,407-854-9949,32824,FL
273 New Road,Parsippany Branch,Parsippany,National Trench Safety,973-882-7750,07054,NJ
2440 S 48th Ave.,Phoenix Branch,Phoenix ,National Trench Safety,602-272-8660,85043,AZ
530 Garcia Ave.,Pittsburg Branch,Pittsburg,National Trench Safety,800-321-5550,94565,CA
1200 Neville Road,Pittsburgh Branch,Pittsburgh ,National Trench Safety,412-331-8118,15225,PA
2495 Mountain Vista Parkway,Provo Branch,Provo,National Trench Safety,801-356-0100,84606,UT
13095 Baker Road,Red Bluff Branch,Red Bluff,National Trench Safety,530-255-2769,96080,CA
600 Bricksteel Lane,Releigh Branch,Garner,National Trench Safety,919-977-8440,27529,NC
3117 Durahart Street,Riverside Branch,Riverside ,National Trench Safety,855-326-5953,92507,CA
2924 47th Ave.,Sacramento Branch,Sacramento,National Trench Safety,800-548-0688,95824,CA
2920 West Directors Row,Salt Lake City Branch,Salt Lake City,National Trench Safety,801-975-9000,84104,UT
3410 N Panam Expressway,San Antonio Branch,San Antonio,National Trench Safety,866-501-8955,78219,TX
9747 Olson Drive,San Diego Branch,San Diego,National Trench Safety,800-350-7528,92121,CA
564 143rd Ave.,San Leandro Branch,San Leandro ,National Trench Safety,855-351-1114,94578,CA
2000 Brierley Way,Sparks Branch,Sparks,National Trench Safety,775-359-5313,89434,NV
8000 Hall Street; Bldg. 12,St. Louis Branch,St. Louis,National Trench Safety,314-383-0504,63147,MO
12458 Gladstone Ave.,Sylmar Branch,Sylmar,National Trench Safety,877-246-4087,91342,CA
7532 Malta Lane,Tampa Branch,Tampa,National Trench Safety,813-248-2495,33637,FL
10999 Nardo Street,Ventura Branch,Ventura,National Trench Safety,855-834-9058,93004,CA
227 Industrial Blvd.,Williamsburg Branch,Toano,National Trench Safety,757-250-7732,23168,VA

